NORAD_CAT_ID,OBJECT_NAME,OBJECT_TYPE,EPOCH,MEAN_MOTION,ECCENTRICITY,INCLINATION,RA_OF_ASC_NODE,ARG_OF_PERICENTER,MEAN_ANOMALY,BSTAR,MEAN_MOTION_DOT,MEAN_MOTION_DDOT,TLE_LINE0,TLE_LINE1,TLE_LINE2,SEMIMAJOR_AXIS,PERIOD,APOGEE,PERIGEE,DECAYED
52667.0,STARLINK-4076,PAYLOAD,2023-12-26 18:26:46,15.0883526,0.0001266,53.2156,163.0603,80.3058,279.8077,0.00013338,1.835e-05,0.0,0 STARLINK-4076,1 52667U 22053M   23360.76859572  .00001835  00000-0  13338-3 0  9999,2 52667  53.2156 163.0603 0001266  80.3058 279.8077 15.08835260 89687,6917.895,95.438,540.636,538.884,0.0
52667.0,STARLINK-4076,PAYLOAD,2023-12-27 19:52:56,15.08834351,0.000116,53.216,158.3071,79.9627,280.1496,-1.3727e-05,-5.06e-06,0.0,0 STARLINK-4076,1 52667U 22053M   23361.82843013 -.00000506  00000-0 -13727-4 0  9999,2 52667  53.2160 158.3071 0001160  79.9627 280.1496 15.08834351 89845,6917.898,95.438,540.565,538.96,0.0
52667.0,STARLINK-4076,PAYLOAD,2023-12-28 19:43:45,15.08820723,0.0001019,53.2158,153.8461,95.7298,264.381,-0.00016259,-2.873e-05,0.0,0 STARLINK-4076,1 52667U 22053M   23362.82205149 -.00002873  00000-0 -16259-3 0  9993,2 52667  53.2158 153.8461 0001019  95.7298 264.3810 15.08820723 89996,6917.939,95.439,540.509,539.099,0.0
52667.0,STARLINK-4076,PAYLOAD,2023-12-29 14:48:23,15.08824246,0.0001017,53.216,150.2803,76.7121,283.3984,0.0003852,5.845e-05,0.0,0 STARLINK-4076,1 52667U 22053M   23363.61693952  .00005845  00000-0  38520-3 0  9999,2 52667  53.2160 150.2803 0001017  76.7121 283.3984 15.08824246 90115,6917.929,95.439,540.497,539.09,0.0
52667.0,STARLINK-4076,PAYLOAD,2023-12-29 16:23:46,15.08828635,0.0001069,53.2158,149.9821,76.4625,283.6486,0.00048428,7.425e-05,0.0,0 STARLINK-4076,1 52667U 22053M   23363.68317948  .00007425  00000-0  48428-3 0  9998,2 52667  53.2158 149.9821 0001069  76.4625 283.6486 15.08828635 90127,6917.915,95.438,540.52,539.041,0.0
52667.0,STARLINK-4076,PAYLOAD,2023-12-30 14:39:10,15.08862889,0.000108,53.2162,145.818,70.1774,289.9334,0.00087176,0.00013622,0.0,0 STARLINK-4076,1 52667U 22053M   23364.61053294  .00013622  00000-0  87176-3 0  9992,2 52667  53.2162 145.8180 0001080  70.1774 289.9334 15.08862889 90269,6917.81,95.436,540.423,538.928,0.0
52667.0,STARLINK-4076,PAYLOAD,2023-12-30 16:14:33,15.08868331,0.0001088,53.2163,145.5205,69.9459,290.165,0.00095214,0.0001491,0.0,0 STARLINK-4076,1 52667U 22053M   23364.67677125  .00014910  00000-0  95214-3 0  9996,2 52667  53.2163 145.5205 0001088  69.9459 290.1650 15.08868331 90273,6917.794,95.436,540.411,538.906,0.0
52667.0,STARLINK-4076,PAYLOAD,2023-12-31 09:43:46,15.08862536,0.0001177,53.2179,142.2489,97.0906,263.022,0.00043576,6.658e-05,0.0,0 STARLINK-4076,1 52667U 22053M   23365.40540415  .00006658  00000-0  43576-3 0  9993,2 52667  53.2179 142.2489 0001177  97.0906 263.0220 15.08862536 90381,6917.812,95.436,540.491,538.862,0.0
52667.0,STARLINK-4076,PAYLOAD,2023-12-31 14:29:56,15.08856095,0.0001073,53.2166,141.3524,109.4648,250.646,0.00017695,2.531e-05,0.0,0 STARLINK-4076,1 52667U 22053M   23365.60412225  .00002531  00000-0  17695-3 0  9991,2 52667  53.2166 141.3524 0001073 109.4648 250.6460 15.08856095 90418,6917.831,95.437,540.438,538.954,0.0
52667.0,STARLINK-4076,PAYLOAD,2024-01-01 09:34:33,15.08846949,0.000102,53.2163,137.7865,89.8509,270.26,1.5122e-05,-4.7e-07,0.0,0 STARLINK-4076,1 52667U 22053M   24001.39900183 -.00000047  00000-0  15122-4 0  9995,2 52667  53.2163 137.7865 0001020  89.8509 270.2600 15.08846949 90535,6917.859,95.437,540.43,539.019,0.0
52667.0,STARLINK-4076,PAYLOAD,2024-01-01 14:20:42,15.08853234,0.0001079,53.2168,136.8961,96.5981,263.5134,2.5089e-06,-2.48e-06,0.0,0 STARLINK-4076,1 52667U 22053M   24001.59771844 -.00000248  00000-0  25089-5 0  9994,2 52667  53.2168 136.8961 0001079  96.5981 263.5134 15.08853234 90565,6917.84,95.437,540.451,538.959,0.0
52667.0,STARLINK-4076,PAYLOAD,2024-01-01 15:56:06,15.08840146,0.0001157,53.2168,136.5993,92.0198,268.0926,0.0003784,5.74e-05,0.0,0 STARLINK-4076,1 52667U 22053M   24001.66396514  .00005740  00000-0  37840-3 0  9996,2 52667  53.2168 136.5993 0001157  92.0198 268.0926 15.08840146 90573,6917.88,95.438,540.545,538.945,0.0
52667.0,STARLINK-4076,PAYLOAD,2024-01-02 11:00:43,15.08841385,0.0001083,53.2165,133.0302,71.9231,288.1879,-2.1024e-05,-6.22e-06,0.0,0 STARLINK-4076,1 52667U 22053M   24002.45884233 -.00000622  00000-0 -21024-4 0  9998,2 52667  53.2165 133.0302 0001083  71.9231 288.1879 15.08841385 90697,6917.876,95.437,540.49,538.992,0.0
52667.0,STARLINK-4076,PAYLOAD,2024-01-02 14:11:30,15.08840778,0.0001054,53.2169,132.4358,74.7505,285.3604,5.7749e-05,6.31e-06,0.0,0 STARLINK-4076,1 52667U 22053M   24002.59132522  .00000631  00000-0  57749-4 0  9991,2 52667  53.2169 132.4358 0001054  74.7505 285.3604 15.08840778 90711,6917.878,95.438,540.472,539.014,0.0
52667.0,STARLINK-4076,PAYLOAD,2024-01-02 18:57:39,15.08846888,0.0001177,53.2174,131.5412,87.1255,272.9871,2.0202e-05,3.4e-07,0.0,0 STARLINK-4076,1 52667U 22053M   24002.79004095  .00000034  00000-0  20202-4 0  9997,2 52667  53.2174 131.5412 0001177  87.1255 272.9871 15.08846888 90743,6917.859,95.437,540.539,538.91,0.0
52667.0,STARLINK-4076,PAYLOAD,2024-01-03 12:26:54,15.08836871,0.0001141,53.2177,128.2687,91.4881,268.6242,-2.3612e-05,-6.64e-06,0.0,0 STARLINK-4076,1 52667U 22053M   24003.51868993 -.00000664  00000-0 -23612-4 0  9992,2 52667  53.2177 128.2687 0001141  91.4881 268.6242 15.08836871 90854,6917.89,95.438,540.544,538.966,0.0
52667.0,STARLINK-4076,PAYLOAD,2024-01-03 14:02:17,15.08838008,0.0001147,53.2176,127.9714,84.4216,275.6907,-9.9414e-06,-4.46e-06,0.0,0 STARLINK-4076,1 52667U 22053M   24003.58492906 -.00000446  00000-0 -99414-5 0  9998,2 52667  53.2176 127.9714 0001147  84.4216 275.6907 15.08838008 90861,6917.886,95.438,540.545,538.958,0.0
52667.0,STARLINK-4076,PAYLOAD,2024-01-03 15:37:40,15.08841384,0.0001165,53.2178,127.6734,79.1033,281.009,1.8246e-05,3e-08,0.0,0 STARLINK-4076,1 52667U 22053M   24003.65116629  .00000003  00000-0  18246-4 0  9991,2 52667  53.2178 127.6734 0001165  79.1033 281.0090 15.08841384 90876,6917.876,95.437,540.547,538.935,0.0
52667.0,STARLINK-4076,PAYLOAD,2024-01-04 12:17:41,15.08843913,0.0001184,53.2171,123.8123,80.6441,279.4685,0.00011511,1.545e-05,0.0,0 STARLINK-4076,1 52667U 22053M   24004.51228405  .00001545  00000-0  11511-3 0  9992,2 52667  53.2171 123.8123 0001184  80.6441 279.4685 15.08843913 91007,6917.868,95.437,540.553,538.914,0.0
52667.0,STARLINK-4076,PAYLOAD,2024-01-04 13:53:04,15.08844628,0.0001187,53.2171,123.515,79.714,280.3986,0.0001238,1.683e-05,0.0,0 STARLINK-4076,1 52667U 22053M   24004.57852363  .00001683  00000-0  12380-3 0  9992,2 52667  53.2171 123.5150 0001187  79.7140 280.3986 15.08844628 91012,6917.866,95.437,540.552,538.91,0.0
52667.0,STARLINK-4076,PAYLOAD,2024-01-04 15:28:27,15.08846447,0.0001189,53.2171,123.2176,77.7218,282.3907,0.00014444,2.012e-05,0.0,0 STARLINK-4076,1 52667U 22053M   24004.64476240  .00002012  00000-0  14444-3 0  9996,2 52667  53.2171 123.2176 0001189  77.7218 282.3907 15.08846447 91020,6917.861,95.437,540.548,538.903,0.0
52667.0,STARLINK-4076,PAYLOAD,2024-01-05 12:08:28,15.08837179,0.0001434,53.2168,119.3535,69.7738,290.3408,2.3383e-05,8.4e-07,0.0,0 STARLINK-4076,1 52667U 22053M   24005.50589116  .00000084  00000-0  23383-4 0  9999,2 52667  53.2168 119.3535 0001434  69.7738 290.3408 15.08837179 91153,6917.889,95.438,540.746,538.762,0.0
52667.0,STARLINK-4076,PAYLOAD,2024-01-05 13:43:52,15.08840227,0.000144,53.2179,119.0557,69.6828,290.4319,7.8624e-05,9.64e-06,0.0,0 STARLINK-4076,1 52667U 22053M   24005.57213100  .00000964  00000-0  78624-4 0  9998,2 52667  53.2179 119.0557 0001440  69.6828 290.4319 15.08840227 91163,6917.88,95.438,540.741,538.749,0.0
52667.0,STARLINK-4076,PAYLOAD,2024-01-06 11:59:15,15.08845564,0.0001313,53.2176,114.8923,67.0648,293.0483,6.3176e-05,7.18e-06,0.0,0 STARLINK-4076,1 52667U 22053M   24006.49948797  .00000718  00000-0  63176-4 0  9990,2 52667  53.2176 114.8923 0001313  67.0648 293.0483 15.08845564 91307,6917.863,95.437,540.637,538.82,0.0
52667.0,STARLINK-4076,PAYLOAD,2024-01-06 13:34:38,15.08859874,0.0001289,53.2173,114.5952,56.4909,303.6206,-0.00013138,-2.379e-05,0.0,0 STARLINK-4076,1 52667U 22053M   24006.56572247 -.00002379  00000-0 -13138-3 0  9990,2 52667  53.2173 114.5952 0001289  56.4909 303.6206 15.08859874 91318,6917.82,95.436,540.576,538.793,0.0
52667.0,STARLINK-4076,PAYLOAD,2024-01-07 07:03:53,15.08840318,0.0001562,53.2175,111.3239,82.9633,277.1537,0.00010892,1.446e-05,0.0,0 STARLINK-4076,1 52667U 22053M   24007.29437008  .00001446  00000-0  10892-3 0  9992,2 52667  53.2175 111.3239 0001562  82.9633 277.1537 15.08840318 91422,6917.879,95.438,540.825,538.664,0.0
52667.0,STARLINK-4076,PAYLOAD,2024-01-07 13:25:26,15.08841132,0.0001535,53.2175,110.1345,82.5327,277.584,0.00010747,1.423e-05,0.0,0 STARLINK-4076,1 52667U 22053M   24007.55932997  .00001423  00000-0  10747-3 0  9992,2 52667  53.2175 110.1345 0001535  82.5327 277.5840 15.08841132 91463,6917.877,95.437,540.804,538.68,0.0
52667.0,STARLINK-4076,PAYLOAD,2024-01-08 11:40:49,15.08844034,0.0001407,53.2163,105.9713,81.6776,278.4375,8.5328e-05,1.07e-05,0.0,0 STARLINK-4076,1 52667U 22053M   24008.48668706  .00001070  00000-0  85328-4 0  9995,2 52667  53.2163 105.9713 0001407  81.6776 278.4375 15.08844034 91600,6917.868,95.437,540.706,538.76,0.0
52667.0,STARLINK-4076,PAYLOAD,2024-01-09 11:31:37,15.08841288,0.0001354,53.2168,101.5101,82.4008,277.7138,5.8991e-05,6.51e-06,0.0,0 STARLINK-4076,1 52667U 22053M   24009.48028949  .00000651  00000-0  58991-4 0  9995,2 52667  53.2168 101.5101 0001354  82.4008 277.7138 15.08841288 91759,6917.876,95.437,540.678,538.805,0.0
52667.0,STARLINK-4076,PAYLOAD,2024-01-10 11:22:24,15.08838172,0.0001384,53.2168,97.0502,77.8386,282.2761,6.6218e-05,7.66e-06,0.0,0 STARLINK-4076,1 52667U 22053M   24010.47389277  .00000766  00000-0  66218-4 0  9998,2 52667  53.2168  97.0502 0001384  77.8386 282.2761 15.08838172 91901,6917.886,95.438,540.708,538.794,0.0
